{
 "generated_at": "2026-07-19T07:26:41Z",
 "sources": [
  {
   "name": "CelesTrak",
   "url": "https://celestrak.org/NORAD/elements/",
   "license": "frei verfügbar; Attribution. Ursprünglich USSPACECOM/Space-Track."
  },
  {
   "name": "GCAT (J. McDowell, planet4589.org)",
   "url": "https://planet4589.org/space/gcat/",
   "license": "CC-BY 4.0"
  }
 ],
 "satellites": [
  {
   "norad": 41884,
   "name": "CYGFM05",
   "intl": "2016-078A",
   "group": "weather",
   "gcat": {
    "class": "C",
    "category": "EOSCI",
    "owner": "LARCN/SWRIB",
    "state": "US"
   },
   "omm": {
    "OBJECT_NAME": "CYGFM05",
    "OBJECT_ID": "2016-078A",
    "EPOCH": "2026-07-18T18:46:20.309664",
    "MEAN_MOTION": 15.57966005,
    "ECCENTRICITY": 0.0005382,
    "INCLINATION": 34.957,
    "RA_OF_ASC_NODE": 51.1543,
    "ARG_OF_PERICENTER": 76.1277,
    "MEAN_ANOMALY": 284.0047,
    "EPHEMERIS_TYPE": 0,
    "CLASSIFICATION_TYPE": "U",
    "NORAD_CAT_ID": 41884,
    "ELEMENT_SET_NO": 999,
    "REV_AT_EPOCH": 53368,
    "BSTAR": 0.00019895,
    "MEAN_MOTION_DOT": 0.00015378,
    "MEAN_MOTION_DDOT": 0
   }
  },
  {
   "norad": 41890,
   "name": "CYGFM07",
   "intl": "2016-078G",
   "group": "weather",
   "gcat": {
    "class": "C",
    "category": "EOSCI",
    "owner": "LARCN/SWRIB",
    "state": "US"
   },
   "omm": {
    "OBJECT_NAME": "CYGFM07",
    "OBJECT_ID": "2016-078G",
    "EPOCH": "2026-07-18T19:24:18.874656",
    "MEAN_MOTION": 15.61706329,
    "ECCENTRICITY": 0.0004577,
    "INCLINATION": 34.9453,
    "RA_OF_ASC_NODE": 18.7952,
    "ARG_OF_PERICENTER": 127.519,
    "MEAN_ANOMALY": 232.5952,
    "EPHEMERIS_TYPE": 0,
    "CLASSIFICATION_TYPE": "U",
    "NORAD_CAT_ID": 41890,
    "ELEMENT_SET_NO": 999,
    "REV_AT_EPOCH": 53394,
    "BSTAR": 0.00022102,
    "MEAN_MOTION_DOT": 0.00019739,
    "MEAN_MOTION_DDOT": 0
   }
  },
  {
   "norad": 41888,
   "name": "CYGFM08",
   "intl": "2016-078E",
   "group": "weather",
   "gcat": {
    "class": "C",
    "category": "EOSCI",
    "owner": "LARCN/SWRIB",
    "state": "US"
   },
   "omm": {
    "OBJECT_NAME": "CYGFM08",
    "OBJECT_ID": "2016-078E",
    "EPOCH": "2026-07-18T20:26:09.026304",
    "MEAN_MOTION": 15.61597389,
    "ECCENTRICITY": 0.0005947,
    "INCLINATION": 34.9436,
    "RA_OF_ASC_NODE": 30.1954,
    "ARG_OF_PERICENTER": 109.5649,
    "MEAN_ANOMALY": 250.5719,
    "EPHEMERIS_TYPE": 0,
    "CLASSIFICATION_TYPE": "U",
    "NORAD_CAT_ID": 41888,
    "ELEMENT_SET_NO": 999,
    "REV_AT_EPOCH": 53392,
    "BSTAR": 0.00021721,
    "MEAN_MOTION_DOT": 0.0001932,
    "MEAN_MOTION_DDOT": 0
   }
  },
  {
   "norad": 35681,
   "name": "DEIMOS-1",
   "intl": "2009-041A",
   "group": "resource",
   "gcat": {
    "class": "B",
    "category": "IMG",
    "owner": "DEIMOS",
    "state": "E"
   },
   "omm": {
    "OBJECT_NAME": "DEIMOS-1",
    "OBJECT_ID": "2009-041A",
    "EPOCH": "2026-07-18T20:40:11.536896",
    "MEAN_MOTION": 14.75265297,
    "ECCENTRICITY": 0.0002803,
    "INCLINATION": 97.7441,
    "RA_OF_ASC_NODE": 355.7217,
    "ARG_OF_PERICENTER": 87.5558,
    "MEAN_ANOMALY": 272.5973,
    "EPHEMERIS_TYPE": 0,
    "CLASSIFICATION_TYPE": "U",
    "NORAD_CAT_ID": 35681,
    "ELEMENT_SET_NO": 999,
    "REV_AT_EPOCH": 91155,
    "BSTAR": 0.00002734,
    "MEAN_MOTION_DOT": 0.00000137,
    "MEAN_MOTION_DDOT": 0
   }
  },
  {
   "norad": 40013,
   "name": "DEIMOS-2",
   "intl": "2014-033D",
   "group": "resource",
   "gcat": {
    "class": "B",
    "category": "IMG",
    "owner": "ELDEC",
    "state": "E"
   },
   "omm": {
    "OBJECT_NAME": "DEIMOS-2",
    "OBJECT_ID": "2014-033D",
    "EPOCH": "2026-07-18T20:49:33.993120",
    "MEAN_MOTION": 14.93801912,
    "ECCENTRICITY": 0.000135,
    "INCLINATION": 97.578,
    "RA_OF_ASC_NODE": 73.2375,
    "ARG_OF_PERICENTER": 107.688,
    "MEAN_ANOMALY": 252.4488,
    "EPHEMERIS_TYPE": 0,
    "CLASSIFICATION_TYPE": "U",
    "NORAD_CAT_ID": 40013,
    "ELEMENT_SET_NO": 999,
    "REV_AT_EPOCH": 64245,
    "BSTAR": 0.00010253,
    "MEAN_MOTION_DOT": 0.00001033,
    "MEAN_MOTION_DDOT": 0
   }
  },
  {
   "norad": 25757,
   "name": "DLR-TUBSAT",
   "intl": "1999-029B",
   "group": "resource",
   "gcat": {
    "class": null,
    "category": null,
    "owner": null,
    "state": null
   },
   "omm": {
    "OBJECT_NAME": "DLR-TUBSAT",
    "OBJECT_ID": "1999-029B",
    "EPOCH": "2026-07-18T20:16:56.360928",
    "MEAN_MOTION": 14.5243366,
    "ECCENTRICITY": 0.0013022,
    "INCLINATION": 98.6713,
    "RA_OF_ASC_NODE": 196.3936,
    "ARG_OF_PERICENTER": 252.6752,
    "MEAN_ANOMALY": 107.3018,
    "EPHEMERIS_TYPE": 0,
    "CLASSIFICATION_TYPE": "U",
    "NORAD_CAT_ID": 25757,
    "ELEMENT_SET_NO": 999,
    "REV_AT_EPOCH": 43784,
    "BSTAR": 0.000012519,
    "MEAN_MOTION_DOT": 2e-8,
    "MEAN_MOTION_DDOT": 0
   }
  },
  {
   "norad": 28054,
   "name": "DMSP 5D-3 F16 (USA 172)",
   "intl": "2003-048A",
   "group": "weather",
   "gcat": {
    "class": null,
    "category": null,
    "owner": null,
    "state": null
   },
   "omm": {
    "OBJECT_NAME": "DMSP 5D-3 F16 (USA 172)",
    "OBJECT_ID": "2003-048A",
    "EPOCH": "2026-07-18T20:48:14.169024",
    "MEAN_MOTION": 14.14484741,
    "ECCENTRICITY": 0.0008012,
    "INCLINATION": 98.9896,
    "RA_OF_ASC_NODE": 223.9036,
    "ARG_OF_PERICENTER": 62.124,
    "MEAN_ANOMALY": 61.5443,
    "EPHEMERIS_TYPE": 0,
    "CLASSIFICATION_TYPE": "U",
    "NORAD_CAT_ID": 28054,
    "ELEMENT_SET_NO": 999,
    "REV_AT_EPOCH": 17396,
    "BSTAR": -0.0000054273,
    "MEAN_MOTION_DOT": -5.6e-7,
    "MEAN_MOTION_DDOT": 0
   }
  },
  {
   "norad": 29522,
   "name": "DMSP 5D-3 F17 (USA 191)",
   "intl": "2006-050A",
   "group": "weather",
   "gcat": {
    "class": "D",
    "category": "MET",
    "owner": "AFSMC",
    "state": "US"
   },
   "omm": {
    "OBJECT_NAME": "DMSP 5D-3 F17 (USA 191)",
    "OBJECT_ID": "2006-050A",
    "EPOCH": "2026-07-18T20:21:33.706656",
    "MEAN_MOTION": 14.14996216,
    "ECCENTRICITY": 0.0009505,
    "INCLINATION": 98.7388,
    "RA_OF_ASC_NODE": 205.7719,
    "ARG_OF_PERICENTER": 331.9762,
    "MEAN_ANOMALY": 28.0898,
    "EPHEMERIS_TYPE": 0,
    "CLASSIFICATION_TYPE": "U",
    "NORAD_CAT_ID": 29522,
    "ELEMENT_SET_NO": 999,
    "REV_AT_EPOCH": 1690,
    "BSTAR": 0.0000046256,
    "MEAN_MOTION_DOT": -3.4e-7,
    "MEAN_MOTION_DDOT": 0
   }
  },
  {
   "norad": 35951,
   "name": "DMSP 5D-3 F18 (USA 210)",
   "intl": "2009-057A",
   "group": "weather",
   "gcat": {
    "class": "D",
    "category": "MET",
    "owner": "AFSMC",
    "state": "US"
   },
   "omm": {
    "OBJECT_NAME": "DMSP 5D-3 F18 (USA 210)",
    "OBJECT_ID": "2009-057A",
    "EPOCH": "2026-07-18T21:25:01.485984",
    "MEAN_MOTION": 14.14913332,
    "ECCENTRICITY": 0.001145,
    "INCLINATION": 98.9059,
    "RA_OF_ASC_NODE": 180.5961,
    "ARG_OF_PERICENTER": 155.2869,
    "MEAN_ANOMALY": 204.8855,
    "EPHEMERIS_TYPE": 0,
    "CLASSIFICATION_TYPE": "U",
    "NORAD_CAT_ID": 35951,
    "ELEMENT_SET_NO": 999,
    "REV_AT_EPOCH": 86407,
    "BSTAR": 0.00011028,
    "MEAN_MOTION_DOT": 0.00000169,
    "MEAN_MOTION_DDOT": 0
   }
  },
  {
   "norad": 35682,
   "name": "DUBAISAT-1",
   "intl": "2009-041B",
   "group": "resource",
   "gcat": {
    "class": null,
    "category": null,
    "owner": null,
    "state": null
   },
   "omm": {
    "OBJECT_NAME": "DUBAISAT-1",
    "OBJECT_ID": "2009-041B",
    "EPOCH": "2026-07-18T20:00:44.409312",
    "MEAN_MOTION": 14.75169773,
    "ECCENTRICITY": 0.0009641,
    "INCLINATION": 98.009,
    "RA_OF_ASC_NODE": 332.7522,
    "ARG_OF_PERICENTER": 336.4482,
    "MEAN_ANOMALY": 23.6284,
    "EPHEMERIS_TYPE": 0,
    "CLASSIFICATION_TYPE": "U",
    "NORAD_CAT_ID": 35682,
    "ELEMENT_SET_NO": 999,
    "REV_AT_EPOCH": 90976,
    "BSTAR": 0.00006226,
    "MEAN_MOTION_DOT": 0.0000037,
    "MEAN_MOTION_DDOT": 0
   }
  }
 ]
}
